{
  "type": "FeatureCollection",
  "name": "sbk_skkmigas_point",
  "crs": {
    "type": "name",
    "properties": { "name": "urn:ogc:def:crs:OGC:1.3:CRS84" }
  },
  "features": [
    {
      "type": "Feature",
      "properties": {
        "OBJECTID": 60547,
        "WEL_ID": 100000014998.0,
        "COUNTRY_ID": 5320.0,
        "COUNTRY_NA": "Indonesia",
        "WELL_NAME": "Martaban 1",
        "API_COUNTR": null,
        "ALTERNATE_": null,
        "BASIN_NAME": "Pater Noster Shelf",
        "SITUATION": "Offshore",
        "TERRAIN": "Shelf",
        "ORIGINAL_L": "S 03`52'31.000\"",
        "ORIGINAL_1": "E 117`30'53.300\"",
        "ORIGINAL_2": -3.875278,
        "ORIGINAL_3": 117.514806,
        "COORD_QUAL": "Reliable coords",
        "WATER_DEPT": 42.0,
        "WATER_DE_1": 138.0,
        "GROUND_ELE": 0.0,
        "GROUND_E_1": 0.0,
        "GROUP_NAME": "ASH/KYU",
        "OPERATOR_N": "Ashland Petroleum Indonesia Inc",
        "CONTRACT_N": "SE Kalimantan Offshore",
        "BLOCK_NAME": "Eastern Block",
        "FIELD_NAME": null,
        "WELL_CLASS": "New-field wildcat",
        "SPUD_DATE": "1976-04-26",
        "INIT_DRILL": "1976-05-23",
        "LAST_COMPL": "1976-05-23",
        "TECHNICAL_": "Plugged & abandoned",
        "CONTENT": "dry",
        "CONTENT_CO": "A",
        "TD_FEET": 6365.0,
        "TD_METER": 1940.0,
        "TD_QUAL_UN": "Reliable; expressed in feet",
        "TVD_FEET": 0.0,
        "TVD_METER": 0.0,
        "TVD_QUAL_U": null,
        "DEVIATION_": "Vertical",
        "RIG_CONTRA": "Western Offshore Drilling & Exploration",
        "RIG_NAME": "Wodeco VII",
        "RIG_TYPE": "Barge",
        "PLATFORM_N": null,
        "SPUD_DATE_": "19760426",
        "INIT_DRI_1": "19760523",
        "LAST_COM_1": "19760523",
        "ACTIVE_FLA": "N",
        "DISC_FLAG": "N",
        "TESTS_FLAG": "N",
        "TOPS_FLAG": "N",
        "GENERAL_ST": "PDS",
        "GENERAL__1": "P&A/Susp Dry/Shows",
        "GENERAL_CO": "DSW",
        "GENERAL__2": "Dry/Shows",
        "ORIGINAL_D": "Unavailable",
        "WGS84_LATI": "S 03`52'28.214\"",
        "WGS84_LONG": "E 117`30'54.644\"",
        "DATUM_SHIF": "Area standard",
        "DML_FLAG": null,
        "S_DATE_OF_": "2007-04-19",
        "OPERATOR_A": "ASHLAND",
        "DEPTH_REF_": 12.0,
        "TECHNICAL1": "0"
      },
      "geometry": {
        "type": "Point",
        "coordinates": [117.515179000000103, -3.874504]
      }
    },
    {
      "type": "Feature",
      "properties": {
        "OBJECTID": 66701,
        "WEL_ID": 100000604967.99998,
        "COUNTRY_ID": 5320.0,
        "COUNTRY_NA": "Indonesia",
        "WELL_NAME": "Makassar Straits 4",
        "API_COUNTR": null,
        "ALTERNATE_": "MS-4",
        "BASIN_NAME": "Pater Noster Shelf",
        "SITUATION": "Offshore",
        "TERRAIN": "Shelf",
        "ORIGINAL_L": "S 03`32'43.683\"",
        "ORIGINAL_1": "E 117`40'49.033\"",
        "ORIGINAL_2": -3.545468,
        "ORIGINAL_3": 117.680287,
        "COORD_QUAL": "Reliable with datum",
        "WATER_DEPT": 77.0,
        "WATER_DE_1": 252.0,
        "GROUND_ELE": 0.0,
        "GROUND_E_1": 0.0,
        "GROUP_NAME": "PEARL 3",
        "OPERATOR_N": "Pearl Oil (Sebuku) Ltd",
        "CONTRACT_N": "Sebuku PSC",
        "BLOCK_NAME": "Sebuku",
        "FIELD_NAME": "Ruby",
        "WELL_CLASS": "Outpost",
        "SPUD_DATE": "2007-04-03",
        "INIT_DRILL": "2007-05-03",
        "LAST_COMPL": "2007-05-03",
        "TECHNICAL_": "Plugged & abandoned",
        "CONTENT": "gas",
        "CONTENT_CO": "C",
        "TD_FEET": 5367.0,
        "TD_METER": 1636.0,
        "TD_QUAL_UN": "Reliable; expressed in feet",
        "TVD_FEET": 0.0,
        "TVD_METER": 0.0,
        "TVD_QUAL_U": null,
        "DEVIATION_": null,
        "RIG_CONTRA": "Frontier",
        "RIG_NAME": "Frontier Duchess",
        "RIG_TYPE": "Drillship anchored",
        "PLATFORM_N": null,
        "SPUD_DATE_": "20070403",
        "INIT_DRI_1": "20070503",
        "LAST_COM_1": "20070503",
        "ACTIVE_FLA": "N",
        "DISC_FLAG": "N",
        "TESTS_FLAG": "Y",
        "TOPS_FLAG": "N",
        "GENERAL_ST": "PAG",
        "GENERAL__1": "P&A/Suspended Gas",
        "GENERAL_CO": "GW",
        "GENERAL__2": "Gas",
        "ORIGINAL_D": "W.G.S. 84",
        "WGS84_LATI": "S 03`32'43.683\"",
        "WGS84_LONG": "E 117`40'49.033\"",
        "DATUM_SHIF": "Original WGS84 Coord",
        "DML_FLAG": null,
        "S_DATE_OF_": "2014-04-09",
        "OPERATOR_A": "PEARL SB",
        "DEPTH_REF_": 50.0,
        "TECHNICAL1": "0"
      },
      "geometry": { "type": "Point", "coordinates": [117.680287, -3.545468] }
    },
    {
      "type": "Feature",
      "properties": {
        "OBJECTID": 68539,
        "WEL_ID": 100000014995.0,
        "COUNTRY_ID": 5320.0,
        "COUNTRY_NA": "Indonesia",
        "WELL_NAME": "Taku Talu 1",
        "API_COUNTR": null,
        "ALTERNATE_": null,
        "BASIN_NAME": "Pater Noster Shelf",
        "SITUATION": "Offshore",
        "TERRAIN": "Shelf",
        "ORIGINAL_L": "S 03`24'27.000\"",
        "ORIGINAL_1": "E 117`51'58.000\"",
        "ORIGINAL_2": -3.4075,
        "ORIGINAL_3": 117.866111,
        "COORD_QUAL": "Reliable coords",
        "WATER_DEPT": 67.0,
        "WATER_DE_1": 220.0,
        "GROUND_ELE": 0.0,
        "GROUND_E_1": 0.0,
        "GROUP_NAME": "ASH/KYU",
        "OPERATOR_N": "Ashland Petroleum Indonesia Inc",
        "CONTRACT_N": "SE Kalimantan Offshr",
        "BLOCK_NAME": "Eastern Block",
        "FIELD_NAME": null,
        "WELL_CLASS": "New-field wildcat",
        "SPUD_DATE": "1970-04-06",
        "INIT_DRILL": "1970-07-24",
        "LAST_COMPL": "1970-07-24",
        "TECHNICAL_": "Plugged & abandoned",
        "CONTENT": "dry",
        "CONTENT_CO": "A",
        "TD_FEET": 10623.0,
        "TD_METER": 3238.0,
        "TD_QUAL_UN": "Reliable; expressed in feet",
        "TVD_FEET": 0.0,
        "TVD_METER": 0.0,
        "TVD_QUAL_U": null,
        "DEVIATION_": "Vertical",
        "RIG_CONTRA": "Zapata Offshore",
        "RIG_NAME": "Investigator",
        "RIG_TYPE": "Barge",
        "PLATFORM_N": null,
        "SPUD_DATE_": "19700406",
        "INIT_DRI_1": "19700724",
        "LAST_COM_1": "19700724",
        "ACTIVE_FLA": "N",
        "DISC_FLAG": "N",
        "TESTS_FLAG": "N",
        "TOPS_FLAG": "N",
        "GENERAL_ST": "PDS",
        "GENERAL__1": "P&A/Susp Dry/Shows",
        "GENERAL_CO": "DSW",
        "GENERAL__2": "Dry/Shows",
        "ORIGINAL_D": "Unavailable",
        "WGS84_LATI": "S 03`24'24.390\"",
        "WGS84_LONG": "E 117`51'59.184\"",
        "DATUM_SHIF": "Area standard",
        "DML_FLAG": null,
        "S_DATE_OF_": "2007-04-19",
        "OPERATOR_A": "ASHLAND",
        "DEPTH_REF_": 12.0,
        "TECHNICAL1": "0"
      },
      "geometry": { "type": "Point", "coordinates": [117.86644, -3.406775] }
    },
    {
      "type": "Feature",
      "properties": {
        "OBJECTID": 68540,
        "WEL_ID": 100000014995.99998,
        "COUNTRY_ID": 5320.0,
        "COUNTRY_NA": "Indonesia",
        "WELL_NAME": "Taku Talu 2",
        "API_COUNTR": null,
        "ALTERNATE_": null,
        "BASIN_NAME": "Pater Noster Shelf",
        "SITUATION": "Offshore",
        "TERRAIN": "Shelf",
        "ORIGINAL_L": "S 03`21'36.000\"",
        "ORIGINAL_1": "E 117`50'47.000\"",
        "ORIGINAL_2": -3.36,
        "ORIGINAL_3": 117.846389,
        "COORD_QUAL": "Reliable coords",
        "WATER_DEPT": 67.0,
        "WATER_DE_1": 220.0,
        "GROUND_ELE": 0.0,
        "GROUND_E_1": 0.0,
        "GROUP_NAME": "ASH/KYU",
        "OPERATOR_N": "Ashland Petroleum Indonesia Inc",
        "CONTRACT_N": "SE Kalimantan Offshr",
        "BLOCK_NAME": "Eastern Block",
        "FIELD_NAME": null,
        "WELL_CLASS": "New-field wildcat",
        "SPUD_DATE": "1970-07-31",
        "INIT_DRILL": "1970-09-20",
        "LAST_COMPL": "1970-09-20",
        "TECHNICAL_": "Plugged & abandoned",
        "CONTENT": "dry",
        "CONTENT_CO": "A",
        "TD_FEET": 5255.0,
        "TD_METER": 1602.0,
        "TD_QUAL_UN": "Reliable; expressed in feet",
        "TVD_FEET": 0.0,
        "TVD_METER": 0.0,
        "TVD_QUAL_U": null,
        "DEVIATION_": "Vertical",
        "RIG_CONTRA": "Zapata Offshore",
        "RIG_NAME": "Investigator",
        "RIG_TYPE": "Barge",
        "PLATFORM_N": null,
        "SPUD_DATE_": "19700731",
        "INIT_DRI_1": "19700920",
        "LAST_COM_1": "19700920",
        "ACTIVE_FLA": "N",
        "DISC_FLAG": "N",
        "TESTS_FLAG": "N",
        "TOPS_FLAG": "N",
        "GENERAL_ST": "PDS",
        "GENERAL__1": "P&A/Susp Dry/Shows",
        "GENERAL_CO": "DSW",
        "GENERAL__2": "Dry/Shows",
        "ORIGINAL_D": "Unavailable",
        "WGS84_LATI": "S 03`21'33.408\"",
        "WGS84_LONG": "E 117`50'48.192\"",
        "DATUM_SHIF": "Area standard",
        "DML_FLAG": null,
        "S_DATE_OF_": "2007-04-19",
        "OPERATOR_A": "ASHLAND",
        "DEPTH_REF_": 12.0,
        "TECHNICAL1": "0"
      },
      "geometry": { "type": "Point", "coordinates": [117.84672, -3.35928] }
    },
    {
      "type": "Feature",
      "properties": {
        "OBJECTID": 71445,
        "WEL_ID": 100000014087.99998,
        "COUNTRY_ID": 5320.0,
        "COUNTRY_NA": "Indonesia",
        "WELL_NAME": "Makassar Straits 1",
        "API_COUNTR": null,
        "ALTERNATE_": "MS-1",
        "BASIN_NAME": "Pater Noster Shelf",
        "SITUATION": "Offshore",
        "TERRAIN": "Shelf",
        "ORIGINAL_L": "S 03`32'54.500\"",
        "ORIGINAL_1": "E 117`41'26.500\"",
        "ORIGINAL_2": -3.548472,
        "ORIGINAL_3": 117.690694,
        "COORD_QUAL": "Reliable coords",
        "WATER_DEPT": 60.0,
        "WATER_DE_1": 196.0,
        "GROUND_ELE": 0.0,
        "GROUND_E_1": 0.0,
        "GROUP_NAME": "ASH/KYU",
        "OPERATOR_N": "Ashland Petroleum Indonesia Inc",
        "CONTRACT_N": "SE Kalimantan Offshore",
        "BLOCK_NAME": "Eastern Block",
        "FIELD_NAME": "Ruby",
        "WELL_CLASS": "New-field wildcat",
        "SPUD_DATE": "1974-10-22",
        "INIT_DRILL": "1975-01-02",
        "LAST_COMPL": "1975-01-02",
        "TECHNICAL_": "Suspended",
        "CONTENT": "gas",
        "CONTENT_CO": "C",
        "TD_FEET": 9035.0,
        "TD_METER": 2754.0,
        "TD_QUAL_UN": "Reliable; expressed in feet",
        "TVD_FEET": 0.0,
        "TVD_METER": 0.0,
        "TVD_QUAL_U": null,
        "DEVIATION_": "Vertical",
        "RIG_CONTRA": null,
        "RIG_NAME": null,
        "RIG_TYPE": null,
        "PLATFORM_N": null,
        "SPUD_DATE_": "19741022",
        "INIT_DRI_1": "19750102",
        "LAST_COM_1": "19750102",
        "ACTIVE_FLA": "N",
        "DISC_FLAG": "Y",
        "TESTS_FLAG": "Y",
        "TOPS_FLAG": "N",
        "GENERAL_ST": "PAG",
        "GENERAL__1": "P&A/Suspended Gas",
        "GENERAL_CO": "GW",
        "GENERAL__2": "Gas",
        "ORIGINAL_D": "Unavailable",
        "WGS84_LATI": "S 03`32'51.835\"",
        "WGS84_LONG": "E 117`41'27.762\"",
        "DATUM_SHIF": "Area standard",
        "DML_FLAG": null,
        "S_DATE_OF_": "2007-04-19",
        "OPERATOR_A": "ASHLAND",
        "DEPTH_REF_": 12.0,
        "TECHNICAL1": "1"
      },
      "geometry": { "type": "Point", "coordinates": [117.691045, -3.547732] }
    },
    {
      "type": "Feature",
      "properties": {
        "OBJECTID": 83878,
        "WEL_ID": 100000370337.0,
        "COUNTRY_ID": 5320.0,
        "COUNTRY_NA": "Indonesia",
        "WELL_NAME": "Pangkat 1",
        "API_COUNTR": null,
        "ALTERNATE_": null,
        "BASIN_NAME": "Pater Noster Shelf",
        "SITUATION": "Offshore",
        "TERRAIN": "Shelf",
        "ORIGINAL_L": "S 03`35'42.509\"",
        "ORIGINAL_1": "E 117`37'25.064\"",
        "ORIGINAL_2": -3.595141,
        "ORIGINAL_3": 117.623629,
        "COORD_QUAL": "Reliable with datum",
        "WATER_DEPT": 63.4,
        "WATER_DE_1": 208.0,
        "GROUND_ELE": 0.0,
        "GROUND_E_1": 0.0,
        "GROUP_NAME": "GULF RS SB",
        "OPERATOR_N": "Gulf Resources (Sebuku) Ltd",
        "CONTRACT_N": "Sebuku PSC",
        "BLOCK_NAME": "Sebuku",
        "FIELD_NAME": null,
        "WELL_CLASS": "New-field wildcat",
        "SPUD_DATE": "2000-12-29",
        "INIT_DRILL": "2001-02-21",
        "LAST_COMPL": "2001-02-21",
        "TECHNICAL_": "Plugged & abandoned",
        "CONTENT": "oil",
        "CONTENT_CO": "B",
        "TD_FEET": 9203.0,
        "TD_METER": 2805.0,
        "TD_QUAL_UN": "Reliable; expressed in metres",
        "TVD_FEET": 0.0,
        "TVD_METER": 0.0,
        "TVD_QUAL_U": null,
        "DEVIATION_": "Vertical",
        "RIG_CONTRA": "Santa Fe International Corp",
        "RIG_NAME": "Santa Fe Rig 134",
        "RIG_TYPE": "Jack-Up",
        "PLATFORM_N": null,
        "SPUD_DATE_": "20001229",
        "INIT_DRI_1": "20010221",
        "LAST_COM_1": "20010221",
        "ACTIVE_FLA": "N",
        "DISC_FLAG": "N",
        "TESTS_FLAG": "Y",
        "TOPS_FLAG": "N",
        "GENERAL_ST": "PAO",
        "GENERAL__1": "P&A/Suspended Oil",
        "GENERAL_CO": "OW",
        "GENERAL__2": "Oil",
        "ORIGINAL_D": "W.G.S. 84",
        "WGS84_LATI": "S 03`35'42.509\"",
        "WGS84_LONG": "E 117`37'25.064\"",
        "DATUM_SHIF": "Original WGS84 Coord",
        "DML_FLAG": null,
        "S_DATE_OF_": "2007-04-19",
        "OPERATOR_A": "GULF RS SB",
        "DEPTH_REF_": 26.8,
        "TECHNICAL1": "0"
      },
      "geometry": { "type": "Point", "coordinates": [117.623629, -3.595141] }
    },
    {
      "type": "Feature",
      "properties": {
        "OBJECTID": 89850,
        "WEL_ID": 100000565904.00002,
        "COUNTRY_ID": 5320.0,
        "COUNTRY_NA": "Indonesia",
        "WELL_NAME": "Makassar Straits 2",
        "API_COUNTR": null,
        "ALTERNATE_": "MS-2",
        "BASIN_NAME": "Pater Noster Shelf",
        "SITUATION": "Offshore",
        "TERRAIN": "Shelf",
        "ORIGINAL_L": "S 03`31'42.506\"",
        "ORIGINAL_1": "E 117`40'39.758\"",
        "ORIGINAL_2": -3.528474,
        "ORIGINAL_3": 117.677711,
        "COORD_QUAL": "Reliable coords",
        "WATER_DEPT": 61.9,
        "WATER_DE_1": 203.0,
        "GROUND_ELE": 0.0,
        "GROUND_E_1": 0.0,
        "GROUP_NAME": "PEARL 3",
        "OPERATOR_N": "Pearl Oil (Sebuku) Ltd",
        "CONTRACT_N": "Sebuku PSC",
        "BLOCK_NAME": "Sebuku",
        "FIELD_NAME": "Ruby",
        "WELL_CLASS": "Outpost",
        "SPUD_DATE": "2006-02-07",
        "INIT_DRILL": "2006-02-25",
        "LAST_COMPL": "2006-02-25",
        "TECHNICAL_": "Plugged & abandoned",
        "CONTENT": "gas",
        "CONTENT_CO": "C",
        "TD_FEET": 5499.0,
        "TD_METER": 1676.0,
        "TD_QUAL_UN": "Reliable; expressed in metres",
        "TVD_FEET": 0.0,
        "TVD_METER": 0.0,
        "TVD_QUAL_U": null,
        "DEVIATION_": null,
        "RIG_CONTRA": "Transocean Inc",
        "RIG_NAME": "Shelf Explorer",
        "RIG_TYPE": "Jack-Up",
        "PLATFORM_N": null,
        "SPUD_DATE_": "20060207",
        "INIT_DRI_1": "20060225",
        "LAST_COM_1": "20060225",
        "ACTIVE_FLA": "N",
        "DISC_FLAG": "N",
        "TESTS_FLAG": "N",
        "TOPS_FLAG": "N",
        "GENERAL_ST": "PAG",
        "GENERAL__1": "P&A/Suspended Gas",
        "GENERAL_CO": "GW",
        "GENERAL__2": "Gas",
        "ORIGINAL_D": "Unavailable",
        "WGS84_LATI": "S 03`31'39.850\"",
        "WGS84_LONG": "E 117`40'41.030\"",
        "DATUM_SHIF": "Area standard",
        "DML_FLAG": null,
        "S_DATE_OF_": "2007-04-19",
        "OPERATOR_A": "PEARL SB",
        "DEPTH_REF_": 27.13,
        "TECHNICAL1": "0"
      },
      "geometry": { "type": "Point", "coordinates": [117.678064, -3.527736] }
    },
    {
      "type": "Feature",
      "properties": {
        "OBJECTID": 90866,
        "WEL_ID": 100000567862.0,
        "COUNTRY_ID": 5320.0,
        "COUNTRY_NA": "Indonesia",
        "WELL_NAME": "Berlian 1A",
        "API_COUNTR": null,
        "ALTERNATE_": null,
        "BASIN_NAME": "Pater Noster Shelf",
        "SITUATION": "Offshore",
        "TERRAIN": "Shelf",
        "ORIGINAL_L": "S 03`20'59.821\"",
        "ORIGINAL_1": "E 117`33'10.703\"",
        "ORIGINAL_2": -3.34995,
        "ORIGINAL_3": 117.552973,
        "COORD_QUAL": "Reliable with datum",
        "WATER_DEPT": 55.0,
        "WATER_DE_1": 180.0,
        "GROUND_ELE": 0.0,
        "GROUND_E_1": 0.0,
        "GROUP_NAME": "PEARL 3",
        "OPERATOR_N": "Pearl Oil (Sebuku) Ltd",
        "CONTRACT_N": "Sebuku PSC",
        "BLOCK_NAME": "Sebuku",
        "FIELD_NAME": null,
        "WELL_CLASS": "New-field wildcat",
        "SPUD_DATE": "2006-03-22",
        "INIT_DRILL": "2006-04-04",
        "LAST_COMPL": "2006-04-04",
        "TECHNICAL_": "Plugged & abandoned",
        "CONTENT": "dry",
        "CONTENT_CO": "A",
        "TD_FEET": 4199.0,
        "TD_METER": 1280.0,
        "TD_QUAL_UN": "Reliable; expressed in metres",
        "TVD_FEET": 0.0,
        "TVD_METER": 0.0,
        "TVD_QUAL_U": null,
        "DEVIATION_": "Vertical",
        "RIG_CONTRA": "Transocean Inc",
        "RIG_NAME": "Shelf Explorer",
        "RIG_TYPE": "Jack-Up",
        "PLATFORM_N": null,
        "SPUD_DATE_": "20060322",
        "INIT_DRI_1": "20060404",
        "LAST_COM_1": "20060404",
        "ACTIVE_FLA": "N",
        "DISC_FLAG": "N",
        "TESTS_FLAG": "N",
        "TOPS_FLAG": "Y",
        "GENERAL_ST": "PDS",
        "GENERAL__1": "P&A/Susp Dry/Shows",
        "GENERAL_CO": "DSW",
        "GENERAL__2": "Dry/Shows",
        "ORIGINAL_D": "W.G.S. 84",
        "WGS84_LATI": "S 03`20'59.821\"",
        "WGS84_LONG": "E 117`33'10.703\"",
        "DATUM_SHIF": "Original WGS84 Coord",
        "DML_FLAG": null,
        "S_DATE_OF_": "2014-04-09",
        "OPERATOR_A": "PEARL SB",
        "DEPTH_REF_": 89.0,
        "TECHNICAL1": "0"
      },
      "geometry": { "type": "Point", "coordinates": [117.552973, -3.34995] }
    },
    {
      "type": "Feature",
      "properties": {
        "OBJECTID": 90977,
        "WEL_ID": 100000568442.0,
        "COUNTRY_ID": 5320.0,
        "COUNTRY_NA": "Indonesia",
        "WELL_NAME": "Berlian 1",
        "API_COUNTR": null,
        "ALTERNATE_": null,
        "BASIN_NAME": "Pater Noster Shelf",
        "SITUATION": "Offshore",
        "TERRAIN": "Shelf",
        "ORIGINAL_L": "S 03`20'59.090\"",
        "ORIGINAL_1": "E 117`33'11.490\"",
        "ORIGINAL_2": -3.349747,
        "ORIGINAL_3": 117.553192,
        "COORD_QUAL": "Reliable with datum",
        "WATER_DEPT": 55.0,
        "WATER_DE_1": 180.0,
        "GROUND_ELE": 0.0,
        "GROUND_E_1": 0.0,
        "GROUP_NAME": "PEARL 3",
        "OPERATOR_N": "Pearl Oil (Sebuku) Ltd",
        "CONTRACT_N": "Sebuku PSC",
        "BLOCK_NAME": "Sebuku",
        "FIELD_NAME": null,
        "WELL_CLASS": "New-field wildcat",
        "SPUD_DATE": "2006-03-06",
        "INIT_DRILL": "2006-03-17",
        "LAST_COMPL": "2006-03-17",
        "TECHNICAL_": "Junked",
        "CONTENT": "dry",
        "CONTENT_CO": "A",
        "TD_FEET": 2201.0,
        "TD_METER": 671.0,
        "TD_QUAL_UN": "Reliable; expressed in metres",
        "TVD_FEET": 0.0,
        "TVD_METER": 0.0,
        "TVD_QUAL_U": null,
        "DEVIATION_": "Vertical",
        "RIG_CONTRA": "Transocean Inc",
        "RIG_NAME": "Shelf Explorer",
        "RIG_TYPE": "Jack-Up",
        "PLATFORM_N": null,
        "SPUD_DATE_": "20060306",
        "INIT_DRI_1": "20060317",
        "LAST_COM_1": "20060317",
        "ACTIVE_FLA": "N",
        "DISC_FLAG": "N",
        "TESTS_FLAG": "N",
        "TOPS_FLAG": "N",
        "GENERAL_ST": "PDS",
        "GENERAL__1": "P&A/Susp Dry/Shows",
        "GENERAL_CO": "DSW",
        "GENERAL__2": "Dry/Shows",
        "ORIGINAL_D": "W.G.S. 84",
        "WGS84_LATI": "S 03`20'59.090\"",
        "WGS84_LONG": "E 117`33'11.490\"",
        "DATUM_SHIF": "Original WGS84 Coord",
        "DML_FLAG": null,
        "S_DATE_OF_": "2014-04-09",
        "OPERATOR_A": "PEARL SB",
        "DEPTH_REF_": 89.0,
        "TECHNICAL1": "6"
      },
      "geometry": { "type": "Point", "coordinates": [117.553192, -3.349747] }
    },
    {
      "type": "Feature",
      "properties": {
        "OBJECTID": 92261,
        "WEL_ID": 100000605866.0,
        "COUNTRY_ID": 5320.0,
        "COUNTRY_NA": "Indonesia",
        "WELL_NAME": "Makassar Straits 3",
        "API_COUNTR": null,
        "ALTERNATE_": "MS-3",
        "BASIN_NAME": "Pater Noster Shelf",
        "SITUATION": "Offshore",
        "TERRAIN": "Shelf",
        "ORIGINAL_L": "S 03`33'39.938\"",
        "ORIGINAL_1": "E 117`41'52.858\"",
        "ORIGINAL_2": -3.561094,
        "ORIGINAL_3": 117.698016,
        "COORD_QUAL": "Reliable with datum",
        "WATER_DEPT": 52.0,
        "WATER_DE_1": 170.0,
        "GROUND_ELE": 0.0,
        "GROUND_E_1": 0.0,
        "GROUP_NAME": "PEARL SB",
        "OPERATOR_N": "Pearl Oil (Sebuku) Ltd",
        "CONTRACT_N": "Sebuku PSC",
        "BLOCK_NAME": "Sebuku",
        "FIELD_NAME": "Ruby",
        "WELL_CLASS": "Outpost",
        "SPUD_DATE": "2007-05-05",
        "INIT_DRILL": "2007-05-29",
        "LAST_COMPL": "2007-05-29",
        "TECHNICAL_": "Plugged & abandoned",
        "CONTENT": "gas",
        "CONTENT_CO": "C",
        "TD_FEET": 5000.0,
        "TD_METER": 1524.0,
        "TD_QUAL_UN": "Reliable; expressed in feet",
        "TVD_FEET": 0.0,
        "TVD_METER": 0.0,
        "TVD_QUAL_U": null,
        "DEVIATION_": null,
        "RIG_CONTRA": "Frontier",
        "RIG_NAME": "Frontier Duchess",
        "RIG_TYPE": "Drillship anchored",
        "PLATFORM_N": null,
        "SPUD_DATE_": "20070505",
        "INIT_DRI_1": "20070529",
        "LAST_COM_1": "20070529",
        "ACTIVE_FLA": "N",
        "DISC_FLAG": "N",
        "TESTS_FLAG": "Y",
        "TOPS_FLAG": "N",
        "GENERAL_ST": "PAG",
        "GENERAL__1": "P&A/Suspended Gas",
        "GENERAL_CO": "GW",
        "GENERAL__2": "Gas",
        "ORIGINAL_D": "W.G.S. 84",
        "WGS84_LATI": "S 03`33'39.938\"",
        "WGS84_LONG": "E 117`41'52.858\"",
        "DATUM_SHIF": "Original WGS84 Coord",
        "DML_FLAG": null,
        "S_DATE_OF_": "2014-04-09",
        "OPERATOR_A": "PEARL SB",
        "DEPTH_REF_": 15.0,
        "TECHNICAL1": "0"
      },
      "geometry": { "type": "Point", "coordinates": [117.698016, -3.561094] }
    },
    {
      "type": "Feature",
      "properties": {
        "OBJECTID": 92336,
        "WEL_ID": 100000014997.0,
        "COUNTRY_ID": 5320.0,
        "COUNTRY_NA": "Indonesia",
        "WELL_NAME": "Larilarian 1",
        "API_COUNTR": null,
        "ALTERNATE_": null,
        "BASIN_NAME": "Pater Noster Shelf",
        "SITUATION": "Offshore",
        "TERRAIN": "Shelf",
        "ORIGINAL_L": "S 03`25'40.000\"",
        "ORIGINAL_1": "E 117`36'30.000\"",
        "ORIGINAL_2": -3.427778,
        "ORIGINAL_3": 117.608333,
        "COORD_QUAL": "Reliable coords",
        "WATER_DEPT": 57.0,
        "WATER_DE_1": 187.0,
        "GROUND_ELE": 0.0,
        "GROUND_E_1": 0.0,
        "GROUP_NAME": "ASH/KYU",
        "OPERATOR_N": "Ashland Petroleum Indonesia Inc",
        "CONTRACT_N": "SE Kalimantan Offshore",
        "BLOCK_NAME": "Eastern Block",
        "FIELD_NAME": null,
        "WELL_CLASS": "New-field wildcat",
        "SPUD_DATE": "1976-03-02",
        "INIT_DRILL": "1976-04-24",
        "LAST_COMPL": "1976-04-24",
        "TECHNICAL_": "Plugged & abandoned",
        "CONTENT": "dry",
        "CONTENT_CO": "A",
        "TD_FEET": 5250.0,
        "TD_METER": 1600.0,
        "TD_QUAL_UN": "Reliable; expressed in feet",
        "TVD_FEET": 0.0,
        "TVD_METER": 0.0,
        "TVD_QUAL_U": null,
        "DEVIATION_": "Vertical",
        "RIG_CONTRA": "Western Offshore Drilling & Exploration",
        "RIG_NAME": "Wodeco VII",
        "RIG_TYPE": "Barge",
        "PLATFORM_N": null,
        "SPUD_DATE_": "19760302",
        "INIT_DRI_1": "19760424",
        "LAST_COM_1": "19760424",
        "ACTIVE_FLA": "N",
        "DISC_FLAG": "N",
        "TESTS_FLAG": "Y",
        "TOPS_FLAG": "N",
        "GENERAL_ST": "PDS",
        "GENERAL__1": "P&A/Susp Dry/Shows",
        "GENERAL_CO": "DSW",
        "GENERAL__2": "Dry/Shows",
        "ORIGINAL_D": "Unavailable",
        "WGS84_LATI": "S 03`25'37.384\"",
        "WGS84_LONG": "E 117`36'31.298\"",
        "DATUM_SHIF": "Area standard",
        "DML_FLAG": null,
        "S_DATE_OF_": "2007-04-19",
        "OPERATOR_A": "ASHLAND",
        "DEPTH_REF_": 10.0,
        "TECHNICAL1": "0"
      },
      "geometry": { "type": "Point", "coordinates": [117.608694, -3.427051] }
    },
    {
      "type": "Feature",
      "properties": {
        "OBJECTID": 95334,
        "WEL_ID": 100000681534.0,
        "COUNTRY_ID": 5320.0,
        "COUNTRY_NA": "Indonesia",
        "WELL_NAME": "Ruby Northwest 1",
        "API_COUNTR": null,
        "ALTERNATE_": null,
        "BASIN_NAME": "Pater Noster Shelf",
        "SITUATION": "Offshore",
        "TERRAIN": "Shelf",
        "ORIGINAL_L": "S 03`30'29.526\"",
        "ORIGINAL_1": "E 117`39'56.400\"",
        "ORIGINAL_2": -3.508202,
        "ORIGINAL_3": 117.665667,
        "COORD_QUAL": "Reliable coords",
        "WATER_DEPT": 66.0,
        "WATER_DE_1": 216.0,
        "GROUND_ELE": 0.0,
        "GROUND_E_1": 0.0,
        "GROUP_NAME": "PEARL SB",
        "OPERATOR_N": "Pearl Oil (Sebuku) Ltd",
        "CONTRACT_N": "Sebuku PSC",
        "BLOCK_NAME": "Sebuku",
        "FIELD_NAME": null,
        "WELL_CLASS": "New-field wildcat",
        "SPUD_DATE": "2010-04-21",
        "INIT_DRILL": "2010-06-10",
        "LAST_COMPL": "2010-06-10",
        "TECHNICAL_": "Plugged & abandoned",
        "CONTENT": "dry",
        "CONTENT_CO": "A",
        "TD_FEET": 4600.0,
        "TD_METER": 1402.0,
        "TD_QUAL_UN": "Reliable; expressed in feet",
        "TVD_FEET": 0.0,
        "TVD_METER": 0.0,
        "TVD_QUAL_U": null,
        "DEVIATION_": "Vertical",
        "RIG_CONTRA": "Transocean Ltd",
        "RIG_NAME": "Trident IX",
        "RIG_TYPE": "Jack-Up",
        "PLATFORM_N": null,
        "SPUD_DATE_": "20100421",
        "INIT_DRI_1": "20100610",
        "LAST_COM_1": "20100610",
        "ACTIVE_FLA": "N",
        "DISC_FLAG": "N",
        "TESTS_FLAG": "N",
        "TOPS_FLAG": "N",
        "GENERAL_ST": "PDS",
        "GENERAL__1": "P&A/Susp Dry/Shows",
        "GENERAL_CO": "DSW",
        "GENERAL__2": "Dry/Shows",
        "ORIGINAL_D": "Unavailable",
        "WGS84_LATI": "S 03`30'26.878\"",
        "WGS84_LONG": "E 117`39'57.676\"",
        "DATUM_SHIF": "Area standard",
        "DML_FLAG": null,
        "S_DATE_OF_": "2011-01-17",
        "OPERATOR_A": "PEARL SB",
        "DEPTH_REF_": 30.0,
        "TECHNICAL1": "0"
      },
      "geometry": { "type": "Point", "coordinates": [117.666021, -3.507466] }
    },
    {
      "type": "Feature",
      "properties": {
        "OBJECTID": 96198,
        "WEL_ID": 100000768634.0,
        "COUNTRY_ID": 5320.0,
        "COUNTRY_NA": "Indonesia",
        "WELL_NAME": "Ruby P-3",
        "API_COUNTR": null,
        "ALTERNATE_": null,
        "BASIN_NAME": "Pater Noster Shelf",
        "SITUATION": "Offshore",
        "TERRAIN": "Shelf",
        "ORIGINAL_L": "S 03`32'56.800\"",
        "ORIGINAL_1": "E 117`41'20.400\"",
        "ORIGINAL_2": -3.549111,
        "ORIGINAL_3": 117.689,
        "COORD_QUAL": "Approx to 1 second",
        "WATER_DEPT": 60.0,
        "WATER_DE_1": 197.0,
        "GROUND_ELE": 0.0,
        "GROUND_E_1": 0.0,
        "GROUP_NAME": "PEARL 6",
        "OPERATOR_N": "Pearl Oil (Sebuku) Ltd",
        "CONTRACT_N": "Sebuku PSC",
        "BLOCK_NAME": "Sebuku",
        "FIELD_NAME": "Ruby",
        "WELL_CLASS": "Development",
        "SPUD_DATE": "2013-07-20",
        "INIT_DRILL": "2013-09-15",
        "LAST_COMPL": "2013-09-15",
        "TECHNICAL_": "Completed",
        "CONTENT": "gas",
        "CONTENT_CO": "C",
        "TD_FEET": 0.0,
        "TD_METER": 0.0,
        "TD_QUAL_UN": null,
        "TVD_FEET": 0.0,
        "TVD_METER": 0.0,
        "TVD_QUAL_U": null,
        "DEVIATION_": "Intent. deviated",
        "RIG_CONTRA": "Shelf Drlg",
        "RIG_NAME": "Randolph Yost",
        "RIG_TYPE": "Jack-Up",
        "PLATFORM_N": "Ruby WHP",
        "SPUD_DATE_": "20130720",
        "INIT_DRI_1": "201309",
        "LAST_COM_1": "201309",
        "ACTIVE_FLA": "N",
        "DISC_FLAG": "N",
        "TESTS_FLAG": "N",
        "TOPS_FLAG": "N",
        "GENERAL_ST": "CPG",
        "GENERAL__1": "Completed Gas",
        "GENERAL_CO": "GW",
        "GENERAL__2": "Gas",
        "ORIGINAL_D": "Unavailable",
        "WGS84_LATI": "S 03`32'54.136\"",
        "WGS84_LONG": "E 117`41'21.664\"",
        "DATUM_SHIF": "Area standard",
        "DML_FLAG": null,
        "S_DATE_OF_": "2013-09-05",
        "OPERATOR_A": "PEARL SB",
        "DEPTH_REF_": 50.0,
        "TECHNICAL1": "2"
      },
      "geometry": {
        "type": "Point",
        "coordinates": [117.689351000000102, -3.548371]
      }
    },
    {
      "type": "Feature",
      "properties": {
        "OBJECTID": 96199,
        "WEL_ID": 100000768637.0,
        "COUNTRY_ID": 5320.0,
        "COUNTRY_NA": "Indonesia",
        "WELL_NAME": "Ruby P-11",
        "API_COUNTR": null,
        "ALTERNATE_": null,
        "BASIN_NAME": "Pater Noster Shelf",
        "SITUATION": "Offshore",
        "TERRAIN": "Shelf",
        "ORIGINAL_L": "S 03`32'56.800\"",
        "ORIGINAL_1": "E 117`41'20.400\"",
        "ORIGINAL_2": -3.549111,
        "ORIGINAL_3": 117.689,
        "COORD_QUAL": "Approx to 1 second",
        "WATER_DEPT": 60.0,
        "WATER_DE_1": 197.0,
        "GROUND_ELE": 0.0,
        "GROUND_E_1": 0.0,
        "GROUP_NAME": "PEARL 6",
        "OPERATOR_N": "Pearl Oil (Sebuku) Ltd",
        "CONTRACT_N": "Sebuku PSC",
        "BLOCK_NAME": "Sebuku",
        "FIELD_NAME": "Ruby",
        "WELL_CLASS": "Development",
        "SPUD_DATE": "2013-07-18",
        "INIT_DRILL": "2013-09-15",
        "LAST_COMPL": "2013-09-15",
        "TECHNICAL_": "Completed",
        "CONTENT": "gas",
        "CONTENT_CO": "C",
        "TD_FEET": 0.0,
        "TD_METER": 0.0,
        "TD_QUAL_UN": null,
        "TVD_FEET": 0.0,
        "TVD_METER": 0.0,
        "TVD_QUAL_U": null,
        "DEVIATION_": "Intent. deviated",
        "RIG_CONTRA": "Shelf Drlg",
        "RIG_NAME": "Randolph Yost",
        "RIG_TYPE": "Jack-Up",
        "PLATFORM_N": "Ruby WHP",
        "SPUD_DATE_": "20130718",
        "INIT_DRI_1": "201309",
        "LAST_COM_1": "201309",
        "ACTIVE_FLA": "N",
        "DISC_FLAG": "N",
        "TESTS_FLAG": "N",
        "TOPS_FLAG": "N",
        "GENERAL_ST": "CPG",
        "GENERAL__1": "Completed Gas",
        "GENERAL_CO": "GW",
        "GENERAL__2": "Gas",
        "ORIGINAL_D": "Unavailable",
        "WGS84_LATI": "S 03`32'54.136\"",
        "WGS84_LONG": "E 117`41'21.664\"",
        "DATUM_SHIF": "Area standard",
        "DML_FLAG": null,
        "S_DATE_OF_": "2013-09-05",
        "OPERATOR_A": "PEARL SB",
        "DEPTH_REF_": 50.0,
        "TECHNICAL1": "2"
      },
      "geometry": {
        "type": "Point",
        "coordinates": [117.689351000000102, -3.548371]
      }
    },
    {
      "type": "Feature",
      "properties": {
        "OBJECTID": 96200,
        "WEL_ID": 100000768638.0,
        "COUNTRY_ID": 5320.0,
        "COUNTRY_NA": "Indonesia",
        "WELL_NAME": "Ruby P-5",
        "API_COUNTR": null,
        "ALTERNATE_": null,
        "BASIN_NAME": "Pater Noster Shelf",
        "SITUATION": "Offshore",
        "TERRAIN": "Shelf",
        "ORIGINAL_L": "S 03`32'56.800\"",
        "ORIGINAL_1": "E 117`41'20.400\"",
        "ORIGINAL_2": -3.549111,
        "ORIGINAL_3": 117.689,
        "COORD_QUAL": "Approx to 1 second",
        "WATER_DEPT": 60.0,
        "WATER_DE_1": 197.0,
        "GROUND_ELE": 0.0,
        "GROUND_E_1": 0.0,
        "GROUP_NAME": "PEARL 6",
        "OPERATOR_N": "Pearl Oil (Sebuku) Ltd",
        "CONTRACT_N": "Sebuku PSC",
        "BLOCK_NAME": "Sebuku",
        "FIELD_NAME": "Ruby",
        "WELL_CLASS": "Development",
        "SPUD_DATE": "2013-07-19",
        "INIT_DRILL": "2013-09-15",
        "LAST_COMPL": "2013-09-15",
        "TECHNICAL_": "Completed",
        "CONTENT": "gas",
        "CONTENT_CO": "C",
        "TD_FEET": 0.0,
        "TD_METER": 0.0,
        "TD_QUAL_UN": null,
        "TVD_FEET": 0.0,
        "TVD_METER": 0.0,
        "TVD_QUAL_U": null,
        "DEVIATION_": "Intent. deviated",
        "RIG_CONTRA": "Shelf Drlg",
        "RIG_NAME": "Randolph Yost",
        "RIG_TYPE": "Jack-Up",
        "PLATFORM_N": "Ruby WHP",
        "SPUD_DATE_": "20130719",
        "INIT_DRI_1": "201309",
        "LAST_COM_1": "201309",
        "ACTIVE_FLA": "N",
        "DISC_FLAG": "N",
        "TESTS_FLAG": "N",
        "TOPS_FLAG": "N",
        "GENERAL_ST": "CPG",
        "GENERAL__1": "Completed Gas",
        "GENERAL_CO": "GW",
        "GENERAL__2": "Gas",
        "ORIGINAL_D": "Unavailable",
        "WGS84_LATI": "S 03`32'54.136\"",
        "WGS84_LONG": "E 117`41'21.664\"",
        "DATUM_SHIF": "Area standard",
        "DML_FLAG": null,
        "S_DATE_OF_": "2013-09-05",
        "OPERATOR_A": "PEARL SB",
        "DEPTH_REF_": 50.0,
        "TECHNICAL1": "2"
      },
      "geometry": {
        "type": "Point",
        "coordinates": [117.689351000000102, -3.548371]
      }
    },
    {
      "type": "Feature",
      "properties": {
        "OBJECTID": 96201,
        "WEL_ID": 100000768638.99998,
        "COUNTRY_ID": 5320.0,
        "COUNTRY_NA": "Indonesia",
        "WELL_NAME": "Ruby P-2",
        "API_COUNTR": null,
        "ALTERNATE_": null,
        "BASIN_NAME": "Pater Noster Shelf",
        "SITUATION": "Offshore",
        "TERRAIN": "Shelf",
        "ORIGINAL_L": "S 03`32'56.800\"",
        "ORIGINAL_1": "E 117`41'20.400\"",
        "ORIGINAL_2": -3.549111,
        "ORIGINAL_3": 117.689,
        "COORD_QUAL": "Approx to 1 second",
        "WATER_DEPT": 60.0,
        "WATER_DE_1": 197.0,
        "GROUND_ELE": 0.0,
        "GROUND_E_1": 0.0,
        "GROUP_NAME": "PEARL 6",
        "OPERATOR_N": "Pearl Oil (Sebuku) Ltd",
        "CONTRACT_N": "Sebuku PSC",
        "BLOCK_NAME": "Sebuku",
        "FIELD_NAME": "Ruby",
        "WELL_CLASS": "Development",
        "SPUD_DATE": "2013-07-21",
        "INIT_DRILL": "2013-09-15",
        "LAST_COMPL": "2013-09-15",
        "TECHNICAL_": "Completed",
        "CONTENT": "gas",
        "CONTENT_CO": "C",
        "TD_FEET": 0.0,
        "TD_METER": 0.0,
        "TD_QUAL_UN": null,
        "TVD_FEET": 0.0,
        "TVD_METER": 0.0,
        "TVD_QUAL_U": null,
        "DEVIATION_": "Intent. deviated",
        "RIG_CONTRA": "Shelf Drlg",
        "RIG_NAME": "Randolph Yost",
        "RIG_TYPE": "Jack-Up",
        "PLATFORM_N": "Ruby WHP",
        "SPUD_DATE_": "20130721",
        "INIT_DRI_1": "201309",
        "LAST_COM_1": "201309",
        "ACTIVE_FLA": "N",
        "DISC_FLAG": "N",
        "TESTS_FLAG": "N",
        "TOPS_FLAG": "N",
        "GENERAL_ST": "CPG",
        "GENERAL__1": "Completed Gas",
        "GENERAL_CO": "GW",
        "GENERAL__2": "Gas",
        "ORIGINAL_D": "Unavailable",
        "WGS84_LATI": "S 03`32'54.136\"",
        "WGS84_LONG": "E 117`41'21.664\"",
        "DATUM_SHIF": "Area standard",
        "DML_FLAG": null,
        "S_DATE_OF_": "2013-09-05",
        "OPERATOR_A": "PEARL SB",
        "DEPTH_REF_": 50.0,
        "TECHNICAL1": "2"
      },
      "geometry": {
        "type": "Point",
        "coordinates": [117.689351000000102, -3.548371]
      }
    }
  ]
}
