{
  "type": "FeatureCollection",
  "name": "sbk_skkmigas_blok",
  "crs": {
    "type": "name",
    "properties": { "name": "urn:ogc:def:crs:OGC:1.3:CRS84" }
  },
  "features": [
    {
      "type": "Feature",
      "properties": { "Id": 0, "ET_ID": "117" },
      "geometry": {
        "type": "MultiPolygon",
        "coordinates": [
          [
            [
              [117.399919509887809, -3.230304718017521],
              [117.399919509887809, -3.281360626220646],
              [117.418798446655273, -3.281332015991211],
              [117.418825149536246, -3.29747200012207],
              [117.588888168335075, -3.297388076782227],
              [117.588888168335075, -3.326581954955998],
              [117.685739517211914, -3.326499938964844],
              [117.68577766418457, -3.376861572265625],
              [117.769266128540039, -3.376804351806584],
              [117.769300000000158, -3.398599999999874],
              [117.826055526733398, -3.398555755615178],
              [117.826028823852653, -3.353248596191349],
              [117.873445510864258, -3.353221893310547],
              [117.873445510864258, -3.428998947143498],
              [117.831777572631836, -3.428998947143498],
              [117.83183479309082, -3.524721145629883],
              [117.788557052612418, -3.524721145629883],
              [117.788667678833121, -3.633699417114258],
              [117.749418258666992, -3.633728027343693],
              [117.749471664428825, -3.667118072509709],
              [117.697668075561523, -3.667160034179688],
              [117.697721481323242, -3.710472106933594],
              [117.608167648315543, -3.710527420043888],
              [117.608224868774528, -3.77691650390625],
              [117.570806503295898, -3.776943206787109],
              [117.570833206176871, -3.828193664550724],
              [117.570280075073242, -3.885833740234375],
              [117.373056411743278, -3.885833740234375],
              [117.373697280883789, -3.836860656738224],
              [117.373697280883789, -3.822666168212834],
              [117.404722213745117, -3.822637557983398],
              [117.404695510864371, -3.799221038818359],
              [117.449556350708121, -3.799221038818359],
              [117.449529647827148, -3.755277633666935],
              [117.527444839477539, -3.755193710327092],
              [117.527334213256836, -3.637083053588867],
              [117.505807876587028, -3.637083053588867],
              [117.505777359008903, -3.570999145507812],
              [117.404474258422852, -3.571027755737248],
              [117.404443740844727, -3.50494384765625],
              [117.305780410766602, -3.504972457885742],
              [117.305723190307617, -3.473194122314453],
              [117.26561164855957, -3.473220825195256],
              [117.26561164855957, -3.427555084228459],
              [117.250200271606559, -3.427610397338867],
              [117.25019645690918, -3.395332336425781],
              [117.22472190856945, -3.395360946655217],
              [117.22472190856945, -3.385463714599553],
              [117.202733993530273, -3.385469436645508],
              [117.202741622924805, -3.330110549926701],
              [117.243249893188477, -3.330081939697209],
              [117.243249893188477, -3.353582382202092],
              [117.276639938354606, -3.353555679321289],
              [117.276639938354606, -3.370332717895508],
              [117.305028915405387, -3.370332717895508],
              [117.305055618286133, -3.403888702392521],
              [117.337778091430778, -3.403888702392521],
              [117.337667465210075, -3.230360031127873],
              [117.399919509887809, -3.230304718017521]
            ]
          ]
        ]
      }
    }
  ]
}
